[
    {
        "Altitude(m)": 611967.2115478613,
        "Argument of Periapsis(deg)": 0.0,
        "Eccentricity": 0.0,
        "Inclination(deg)": 60.0,
        "Latitude(deg)": 59.140260442913664,
        "Longitude(deg)": 86.09203684558753,
        "Mean Anomaly(deg)": 98.18180000000001,
        "RAAN(deg)": 80.0,
        "Satellite Name": "Test1 358",
        "Satellite Number": 358,
        "Semi-Major Axis(m)": 6980739.136638005,
        "Time(s)": 0
    },
    {
        "Altitude(m)": 611934.4115788447,
        "Argument of Periapsis(deg)": 0.00010418945913296404,
        "Eccentricity": 0.0,
        "Inclination(deg)": 60.0,
        "Latitude(deg)": 58.98662285625253,
        "Longitude(deg)": 87.21528592100947,
        "Mean Anomaly(deg)": 98.80190614546183,
        "RAAN(deg)": 79.99957995086025,
        "Satellite Name": "Test1 358",
        "Satellite Number": 358,
        "Semi-Major Axis(m)": 6980739.136638005,
        "Time(s)": 10
    }
]